{"type": "FeatureCollection", "features": [ {"type": "Feature", "properties": {"norad_id": 37280, "name": "COSMOS 2251 DEB", "group": "cosmos-2251-debris", "lat": 45.473417531553814, "lon": 81.29612460310787, "alt_km": 901.5558464038859, "timestamp": "2025-12-08T15:42:50.193694+00:00", "meta": {"OBJECT_NAME": "COSMOS 2251 DEB", "OBJECT_ID": "1993-036BHU", "EPOCH": "2025-12-07T22:33:59.390208", "MEAN_MOTION": 14.19261757, "ECCENTRICITY": 0.01314572, "INCLINATION": 74.0315, "RA_OF_ASC_NODE": 65.6486, "ARG_OF_PERICENTER": 195.2525, "MEAN_ANOMALY": 164.4641, "EPHEMERIS_TYPE": 0, "CLASSIFICATION_TYPE": "U", "NORAD_CAT_ID": 37280, "ELEMENT_SET_NO": 999, "REV_AT_EPOCH": 57255, "BSTAR": 0.0024447431, "MEAN_MOTION_DOT": 5.567e-05, "MEAN_MOTION_DDOT": 0}, "tle": {"line1": "1 37280U 93036BHU 25341.94027072  .00005567  00000+0  24447-2 0  9992", "line2": "2 37280  74.0315  65.6486 0131457 195.2525 164.4641 14.19261757572550"}}, "geometry": {"type": "Point", "coordinates": [81.29612460310787, 45.473417531553814]}}, {"type": "Feature", "properties": {"norad_id": 37284, "name": "COSMOS 2251 DEB", "group": "cosmos-2251-debris", "lat": 33.11374974153314, "lon": -26.817552161428566, "alt_km": 962.4037499401356, "timestamp": "2025-12-08T15:42:50.193704+00:00", "meta": {"OBJECT_NAME": "COSMOS 2251 DEB", "OBJECT_ID": "1993-036BHY", "EPOCH": "2025-12-05T19:06:47.225088", "MEAN_MOTION": 14.12657303, "ECCENTRICITY": 0.01604408, "INCLINATION": 74.0121, "RA_OF_ASC_NODE": 169.0185, "ARG_OF_PERICENTER": 322.3384, "MEAN_ANOMALY": 52.3924, "EPHEMERIS_TYPE": 0, "CLASSIFICATION_TYPE": "U", "NORAD_CAT_ID": 37284, "ELEMENT_SET_NO": 999, "REV_AT_EPOCH": 59077, "BSTAR": 0.001984473, "MEAN_MOTION_DOT": 4.13e-05, "MEAN_MOTION_DDOT": 0}, "tle": {"line1": "1 37284U 93036BHY 25339.79637992  .00004130  00000+0  19845-2 0  9995", "line2": "2 37284  74.0121 169.0185 0160440 322.3384  52.3924 14.12657303590776"}}, "geometry": {"type": "Point", "coordinates": [-26.817552161428566, 33.11374974153314]}}, {"type": "Feature", "properties": {"norad_id": 37292, "name": "COSMOS 2251 DEB", "group": "cosmos-2251-debris", "lat": 42.69562791334203, "lon": 72.06073696163173, "alt_km": 731.7496102030082, "timestamp": "2025-12-08T15:42:50.193714+00:00", "meta": {"OBJECT_NAME": "COSMOS 2251 DEB", "OBJECT_ID": "1993-036BJG", "EPOCH": "2025-12-02T14:04:30.366912", "MEAN_MOTION": 14.03226454, "ECCENTRICITY": 0.02102512, "INCLINATION": 74.129, "RA_OF_ASC_NODE": 67.3453, "ARG_OF_PERICENTER": 73.1105, "MEAN_ANOMALY": 289.2966, "EPHEMERIS_TYPE": 0, "CLASSIFICATION_TYPE": "U", "NORAD_CAT_ID": 37292, "ELEMENT_SET_NO": 999, "REV_AT_EPOCH": 59706, "BSTAR": 0.0022453288, "MEAN_MOTION_DOT": 4.236e-05, "MEAN_MOTION_DDOT": 0}, "tle": {"line1": "1 37292U 93036BJG 25336.58646258  .00004236  00000+0  22453-2 0  9999", "line2": "2 37292  74.1290  67.3453 0210251  73.1105 289.2966 14.03226454597064"}}, "geometry": {"type": "Point", "coordinates": [72.06073696163173, 42.69562791334203]}}, {"type": "Feature", "properties": {"norad_id": 37295, "name": "COSMOS 2251 DEB", "group": "cosmos-2251-debris", "lat": 46.8925199838857, "lon": 91.65656325767648, "alt_km": 643.0359163480898, "timestamp": "2025-12-08T15:42:50.193724+00:00", "meta": {"OBJECT_NAME": "COSMOS 2251 DEB", "OBJECT_ID": "1993-036BJK", "EPOCH": "2025-12-08T06:55:47.796960", "MEAN_MOTION": 14.65195432, "ECCENTRICITY": 0.0043741, "INCLINATION": 74.0075, "RA_OF_ASC_NODE": 290.2038, "ARG_OF_PERICENTER": 110.7992, "MEAN_ANOMALY": 249.7871, "EPHEMERIS_TYPE": 0, "CLASSIFICATION_TYPE": "U", "NORAD_CAT_ID": 37295, "ELEMENT_SET_NO": 999, "REV_AT_EPOCH": 82239, "BSTAR": 0.00091244474, "MEAN_MOTION_DOT": 4.952e-05, "MEAN_MOTION_DDOT": 0}, "tle": {"line1": "1 37295U 93036BJK 25342.28874765  .00004952  00000+0  91244-3 0  9992", "line2": "2 37295  74.0075 290.2038 0043741 110.7992 249.7871 14.65195432822395"}}, "geometry": {"type": "Point", "coordinates": [91.65656325767648, 46.8925199838857]}}, {"type": "Feature", "properties": {"norad_id": 37305, "name": "COSMOS 2251 DEB", "group": "cosmos-2251-debris", "lat": -19.30722126076366, "lon": -67.71884131507822, "alt_km": 770.5057750741062, "timestamp": "2025-12-08T15:42:50.193734+00:00", "meta": {"OBJECT_NAME": "COSMOS 2251 DEB", "OBJECT_ID": "1993-036BJV", "EPOCH": "2025-12-01T04:54:57.845088", "MEAN_MOTION": 14.36058989, "ECCENTRICITY": 0.0050534, "INCLINATION": 73.8694, "RA_OF_ASC_NODE": 311.9126, "ARG_OF_PERICENTER": 273.9871, "MEAN_ANOMALY": 85.5504, "EPHEMERIS_TYPE": 0, "CLASSIFICATION_TYPE": "U", "NORAD_CAT_ID": 37305, "ELEMENT_SET_NO": 999, "REV_AT_EPOCH": 66701, "BSTAR": 0.00088749, "MEAN_MOTION_DOT": 2.593e-05, "MEAN_MOTION_DDOT": 0}, "tle": {"line1": "1 37305U 93036BJV 25335.20483617  .00002593  00000+0  88749-3 0  9995", "line2": "2 37305  73.8694 311.9126 0050534 273.9871  85.5504 14.36058989667014"}}, "geometry": {"type": "Point", "coordinates": [-67.71884131507822, -19.30722126076366]}}, {"type": "Feature", "properties": {"norad_id": 37312, "name": "COSMOS 2251 DEB", "group": "cosmos-2251-debris", "lat": -52.18396753896127, "lon": 53.45610934442056, "alt_km": 742.7153377412451, "timestamp": "2025-12-08T15:42:50.193744+00:00", "meta": {"OBJECT_NAME": "COSMOS 2251 DEB", "OBJECT_ID": "1993-036BKC", "EPOCH": "2025-12-07T08:44:33.829152", "MEAN_MOTION": 14.46101294, "ECCENTRICITY": 0.00182642, "INCLINATION": 74.0312, "RA_OF_ASC_NODE": 214.2138, "ARG_OF_PERICENTER": 317.9243, "MEAN_ANOMALY": 42.0511, "EPHEMERIS_TYPE": 0, "CLASSIFICATION_TYPE": "U", "NORAD_CAT_ID": 37312, "ELEMENT_SET_NO": 999, "REV_AT_EPOCH": 86086, "BSTAR": 0.00080794377, "MEAN_MOTION_DOT": 2.864e-05, "MEAN_MOTION_DDOT": 0}, "tle": {"line1": "1 37312U 93036BKC 25341.36428043  .00002864  00000+0  80794-3 0  9992", "line2": "2 37312  74.0312 214.2138 0018264 317.9243  42.0511 14.46101294860869"}}, "geometry": {"type": "Point", "coordinates": [53.45610934442056, -52.18396753896127]}}, {"type": "Feature", "properties": {"norad_id": 37316, "name": "COSMOS 2251 DEB", "group": "cosmos-2251-debris", "lat": 73.28922190446109, "lon": 101.9616111672912, "alt_km": 557.5382933983137, "timestamp": "2025-12-08T15:42:50.193755+00:00", "meta": {"OBJECT_NAME": "COSMOS 2251 DEB", "OBJECT_ID": "1993-036BKG", "EPOCH": "2025-12-07T13:37:32.618496", "MEAN_MOTION": 14.9417332, "ECCENTRICITY": 0.00293383, "INCLINATION": 74.02, "RA_OF_ASC_NODE": 31.5001, "ARG_OF_PERICENTER": 102.0227, "MEAN_ANOMALY": 258.4247, "EPHEMERIS_TYPE": 0, "CLASSIFICATION_TYPE": "U", "NORAD_CAT_ID": 37316, "ELEMENT_SET_NO": 999, "REV_AT_EPOCH": 86066, "BSTAR": 0.0033956107, "MEAN_MOTION_DOT": 0.0003683, "MEAN_MOTION_DDOT": 0}, "tle": {"line1": "1 37316U 93036BKG 25341.56773864  .00036830  00000+0  33956-2 0  9999", "line2": "2 37316  74.0200  31.5001 0029338 102.0227 258.4247 14.94173320860666"}}, "geometry": {"type": "Point", "coordinates": [101.9616111672912, 73.28922190446109]}}, {"type": "Feature", "properties": {"norad_id": 37320, "name": "COSMOS 2251 DEB", "group": "cosmos-2251-debris", "lat": 74.0316833525425, "lon": -45.16553263631775, "alt_km": 649.4568539629754, "timestamp": "2025-12-08T15:42:50.193764+00:00", "meta": {"OBJECT_NAME": "COSMOS 2251 DEB", "OBJECT_ID": "1993-036BKL", "EPOCH": "2025-12-07T10:04:58.850112", "MEAN_MOTION": 14.78679149, "ECCENTRICITY": 0.00469494, "INCLINATION": 74.0461, "RA_OF_ASC_NODE": 228.6135, "ARG_OF_PERICENTER": 316.7124, "MEAN_ANOMALY": 43.0365, "EPHEMERIS_TYPE": 0, "CLASSIFICATION_TYPE": "U", "NORAD_CAT_ID": 37320, "ELEMENT_SET_NO": 999, "REV_AT_EPOCH": 66068, "BSTAR": 0.0013976753, "MEAN_MOTION_DOT": 0.00010421, "MEAN_MOTION_DDOT": 0}, "tle": {"line1": "1 37320U 93036BKL 25341.42012558  .00010421  00000+0  13977-2 0  9994", "line2": "2 37320  74.0461 228.6135 0046949 316.7124  43.0365 14.78679149660685"}}, "geometry": {"type": "Point", "coordinates": [-45.16553263631775, 74.0316833525425]}}, {"type": "Feature", "properties": {"norad_id": 37326, "name": "COSMOS 2251 DEB", "group": "cosmos-2251-debris", "lat": -8.178639242924534, "lon": 164.8723612002832, "alt_km": 681.9819427154725, "timestamp": "2025-12-08T15:42:50.193775+00:00", "meta": {"OBJECT_NAME": "COSMOS 2251 DEB", "OBJECT_ID": "1993-036BKS", "EPOCH": "2025-12-08T06:38:46.757184", "MEAN_MOTION": 14.61542135, "ECCENTRICITY": 0.00548591, "INCLINATION": 74.0258, "RA_OF_ASC_NODE": 343.2358, "ARG_OF_PERICENTER": 113.6246, "MEAN_ANOMALY": 247.0694, "EPHEMERIS_TYPE": 0, "CLASSIFICATION_TYPE": "U", "NORAD_CAT_ID": 37326, "ELEMENT_SET_NO": 999, "REV_AT_EPOCH": 85418, "BSTAR": 0.00074811133, "MEAN_MOTION_DOT": 3.765e-05, "MEAN_MOTION_DDOT": 0}, "tle": {"line1": "1 37326U 93036BKS 25342.27693006  .00003765  00000+0  74811-3 0  9995", "line2": "2 37326  74.0258 343.2358 0054859 113.6246 247.0694 14.61542135854181"}}, "geometry": {"type": "Point", "coordinates": [164.8723612002832, -8.178639242924534]}}, {"type": "Feature", "properties": {"norad_id": 37330, "name": "COSMOS 2251 DEB", "group": "cosmos-2251-debris", "lat": -33.38531495173877, "lon": 133.77323584355378, "alt_km": 681.5154472337845, "timestamp": "2025-12-08T15:42:50.193785+00:00", "meta": {"OBJECT_NAME": "COSMOS 2251 DEB", "OBJECT_ID": "1993-036BKW", "EPOCH": "2025-12-08T06:30:41.728320", "MEAN_MOTION": 14.59520062, "ECCENTRICITY": 0.00571919, "INCLINATION": 74.0173, "RA_OF_ASC_NODE": 303.6176, "ARG_OF_PERICENTER": 153.3924, "MEAN_ANOMALY": 207.0198, "EPHEMERIS_TYPE": 0, "CLASSIFICATION_TYPE": "U", "NORAD_CAT_ID": 37330, "ELEMENT_SET_NO": 999, "REV_AT_EPOCH": 86303, "BSTAR": 0.00056776648, "MEAN_MOTION_DOT": 2.729e-05, "MEAN_MOTION_DDOT": 0}, "tle": {"line1": "1 37330U 93036BKW 25342.27131630  .00002729  00000+0  56777-3 0  9990", "line2": "2 37330  74.0173 303.6176 0057191 153.3924 207.0198 14.59520062863037"}}, "geometry": {"type": "Point", "coordinates": [133.77323584355378, -33.38531495173877]}}]}